1 00000U 00000A   25079.37569444  .00000000  00000-0  00000-2 0    00
2 00000  31.0000   0.0000 0000001   0.0000   0.0000 15.18686300    05
